KATL 290652Z 25007KT 10SM CLR 27/19 A3000 RMK AO2 SLP143 T02720189
2012/06/29 08:36
KATL 290730Z 2908/3012 26004KT P6SM SKC
FM291400 30010KT P6SM SKC
FM300100 29005KT P6SM SKC
